STARLINK-3516           
1 51739U 22016AB  25140.46989222  .00001160  00000+0  90954-4 0  9998
2 51739  53.2165 195.4351 0001210  85.3280 274.7850 15.08838976179293
STARLINK-3500           
1 51740U 22016AC  25140.51773549  .00000253  00000+0  33994-4 0  9992
2 51740  53.2165 195.2174 0001226  93.9096 266.2037 15.08831900179308
STARLINK-3520           
1 51741U 22016AD  25140.46349149  .00001646  00000+0  12151-3 0  9990
2 51741  53.2161 195.4719 0001259  94.1003 266.0133 15.08839148179294
STARLINK-3521           
1 51742U 22016AE  25140.46623643  .00000930  00000+0  76526-4 0  9997
2 51742  53.2164 195.6433 0001223  88.5889 271.5243 15.08837059179295
STARLINK-3512           
1 51743U 22016AF  25140.40089388  .00002271  00000+0  16071-3 0  9992
2 51743  53.2161 185.6669 0001323  86.1674 273.9469 15.08849367179426
STARLINK-3452           
1 51744U 22016AG  25140.51037606  .00000385  00000+0  42304-4 0  9994
2 51744  53.2159 195.2798 0001030  92.1040 268.0070 15.08834543179303
STARLINK-3449           
1 51745U 22016AH  25140.38893074  .00000569  00000+0  53837-4 0  9996
2 51745  53.2161 195.7954 0000932  91.5135 268.5964 15.08835883179286
STARLINK-3502           
1 51746U 22016AJ  25140.40552746  .00000352  00000+0  40196-4 0  9992
2 51746  53.2163 185.7332 0001160  88.4588 271.6537 15.08838305179428
STARLINK-3446           
1 51747U 22016AK  25140.44877100  .00001501  00000+0  11235-3 0  9999
2 51747  53.2159 195.5763 0001098  86.8480 273.2638 15.08839006179298
STARLINK-3501           
1 51748U 22016AL  25140.39721174  .00001109  00000+0  87779-4 0  9994
2 51748  53.2161 185.7614 0001271  81.4488 278.6648 15.08838306179427
STARLINK-3451           
1 51749U 22016AM  25140.42575808  .00003697  00000+0  25016-3 0  9999
2 51749  53.2151 195.8147 0001083  69.9101 290.2008 15.08856182179280
STARLINK-3505           
1 51750U 22016AN  25140.39080706  .00001133  00000+0  89270-4 0  9991
2 51750  53.2161 185.7990 0001133  85.5815 274.5306 15.08841713179425
STARLINK-3506           
1 51751U 22016AP  25140.40184570 -.00000023  00000+0  16636-4 0  9992
2 51751  53.2159 185.7494 0001183  85.0169 275.0958 15.08839971180541
STARLINK-3511           
1 51752U 22016AQ  25140.44599205 -.00001717  00000+0 -89852-4 0  9994
2 51752  53.2158 185.4731 0001236  89.1640 270.9494 15.08834332179431
STARLINK-3507           
1 51753U 22016AR  25140.39449117 -.00000234  00000+0  33673-5 0  9998
2 51753  53.2163 185.7837 0001196  87.4646 272.6483 15.08836204179426
STARLINK-3457           
1 51754U 22016AS  25140.42294186  .00000406  00000+0  43580-4 0  9994
2 51754  53.2163 185.4014 0001186  89.8147 270.2981 15.08836174179436
STARLINK-3460           
1 51755U 22016AT  25140.44873793  .00001811  00000+0  13178-3 0  9994
2 51755  53.2163 185.5301 0001043  76.0606 284.0502 15.08851682179430
STARLINK-3513           
1 51756U 22016AU  25140.48553284  .00000027  00000+0  19758-4 0  9998
2 51756  53.2159 185.3642 0001222  92.2907 267.8226 15.08834088179449
STARLINK-3459           
1 51757U 22016AV  25140.41656408  .00002255  00000+0  15970-3 0  9990
2 51757  53.2170 185.6896 0001010  72.4707 287.6395 15.08841408179430
STARLINK-3458           
1 51758U 22016AW  25140.40824392  .00000066  00000+0  22261-4 0  9999
2 51758  53.2161 185.6617 0001294  87.4748 272.6392 15.08837921180570
STARLINK-3456           
1 51759U 22016AX  25140.47816693  .00000484  00000+0  48512-4 0  9993
2 51759  53.2156 185.3969 0000765  60.9192 299.1877 15.08838005179443
STARLINK-3622           
1 51768U 22017A   25140.57477419  .00000718  00000+0  63205-4 0  9990
2 51768  53.2172 214.9639 0001066  92.8909 267.2205 15.08834887179792
STARLINK-3621           
1 51769U 22017B   25140.56741433  .00000485  00000+0  48572-4 0  9991
2 51769  53.2177 214.9968 0001361  97.2272 262.8875 15.08831526178355
STARLINK-3612           
1 51770U 22017C   25140.50485405  .00001175  00000+0  91893-4 0  9992
2 51770  53.2178 215.2792 0001275  98.9899 261.1237 15.08832270178355
STARLINK-3614           
1 51771U 22017D   25140.49748722  .00000707  00000+0  62521-4 0  9991
2 51771  53.2175 215.2999 0001194  91.4575 268.6554 15.08836548178346
STARLINK-3623           
1 51772U 22017E   25140.55637128 -.00001091  00000+0 -50510-4 0  9990
2 51772  53.2157 215.0432 0000931  80.2875 279.8223 15.08828834178340
STARLINK-3624           
1 51773U 22017F   25140.56100260  .00000358  00000+0  40602-4 0  9998
2 51773  53.2166 214.9950 0001042  83.3287 276.7823 15.08839557179818
STARLINK-3629           
1 51774U 22017G   25140.48276840  .00000328  00000+0  38664-4 0  9990
2 51774  53.2164 215.3751 0001099  91.0173 269.0945 15.08838430178305
STARLINK-3620           
1 51775U 22017H   25140.56005244  .00000909  00000+0  75217-4 0  9998
2 51775  53.2165 215.0290 0001118  93.6600 266.4520 15.08835685178351
STARLINK-3608           
1 51776U 22017J   25140.54530172  .00003142  00000+0  21526-3 0  9995
2 51776  53.2175 215.0937 0001349  90.4364 269.6783 15.08861336178313
STARLINK-3625           
1 51777U 22017K   25140.48372616  .00000627  00000+0  57462-4 0  9990
2 51777  53.2169 215.3417 0001167  89.6376 270.4750 15.08834053178336
STARLINK-3615           
1 51778U 22017L   25140.48735912  .00000343  00000+0  39606-4 0  9998
2 51778  53.2169 205.2319 0001046  99.5729 260.5381 15.08837208178294
STARLINK-3611           
1 51779U 22017M   25140.48005507  .00000371  00000+0  41381-4 0  9993
2 51779  53.2168 215.4372 0001226  80.6257 279.4874 15.08832003178309
STARLINK-3617           
1 51780U 22017N   25140.53061284  .00000941  00000+0  77230-4 0  9990
2 51780  53.2168 215.1517 0001064  81.0800 279.0313 15.08835267178161
STARLINK-3580           
1 51781U 22017P   25140.46804451 -.00001977  00000+0 -10619-3 0  9993
2 51781  53.2171 215.4035 0001269  89.2668 270.8470 15.08837499178154
STARLINK-3616           
1 51782U 22017Q   25140.57018556  .00001272  00000+0  97972-4 0  9993
2 51782  53.2171 225.1368 0000679  72.8409 287.2658 15.08841101177937
STARLINK-3628           
1 51783U 22017R   25140.47269029  .00002077  00000+0  14851-3 0  9994
2 51783  53.2166 215.4693 0000754  66.5008 293.6063 15.08843264178152
STARLINK-3632           
1 51784U 22017S   25140.55176992  .00000297  00000+0  36744-4 0  9998
2 51784  53.2173 225.0676 0001303  92.4990 267.6151 15.08839102178029
STARLINK-3646           
1 51785U 22017T   25140.52790273 -.00001057  00000+0 -48366-4 0  9990
2 51785  53.2169 215.1443 0000673  82.9570 277.1499 15.08823926179854
STARLINK-3638           
1 51786U 22017U   25140.54441557  .00001273  00000+0  98024-4 0  9995
2 51786  53.2169 225.0998 0000620  82.4316 277.6747 15.08833442178028
STARLINK-3619           
1 51787U 22017V   25140.55913329  .00002798  00000+0  19382-3 0  9990
2 51787  53.2157 225.0321 0001189  95.0221 265.0907 15.08842555179667
STARLINK-3641           
1 51788U 22017W   25140.53337175  .00000816  00000+0  69368-4 0  9997
2 51788  53.2171 225.1507 0001194  97.4912 262.6216 15.08833620179669
STARLINK-3639           
1 51789U 22017X   25140.54809660  .00001919  00000+0  13868-3 0  9990
2 51789  53.2172 225.0829 0001181  99.4853 260.6272 15.08827680179679
STARLINK-3631           
1 51790U 22017Y   25140.52968883  .00001596  00000+0  11835-3 0  9996
2 51790  53.2169 225.1663 0001046  85.3588 274.7524 15.08839506179714
STARLINK-3602           
1 51791U 22017Z   25140.54073656  .00000891  00000+0  74102-4 0  9998
2 51791  53.2176 225.1179 0001165  87.1489 272.9636 15.08832751179660
STARLINK-3626           
1 51792U 22017AA  25140.52233475  .00001548  00000+0  11537-3 0  9996
2 51792  53.2173 225.1994 0001075  93.1775 266.9340 15.08830668179714
STARLINK-3633           
1 51793U 22017AB  25140.53801075  .00001743  00000+0  12756-3 0  9996
2 51793  53.2171 225.1401 0001262 101.5786 258.5348 15.08835568179719
STARLINK-3573           
1 51794U 22017AC  25140.58120693  .00000995  00000+0  80589-4 0  9990
2 51794  53.2168 224.9325 0001151  81.0214 279.0908 15.08840171179674
STARLINK-3586           
1 51795U 22017AD  25140.53707520  .00000845  00000+0  71156-4 0  9990
2 51795  53.2173 225.3341 0001112  93.4050 266.7069 15.08836572179666
STARLINK-3634           
1 51798U 22017AG  25140.56650033 -.00000748  00000+0 -28931-4 0  9999
2 51798  53.2172 225.0010 0001036  89.0679 271.0432 15.08828509179711
STARLINK-3637           
1 51799U 22017AH  25140.57750102  .00003450  00000+0  23458-3 0  9998
2 51799  53.2170 224.9483 0001097  97.6702 262.4415 15.08865759179679
STARLINK-3592           
1 51801U 22017AK  25140.50760841 -.00000379  00000+0 -57348-5 0  9992
2 51801  53.2170 225.2625 0001269  92.2744 267.8394 15.08841713179661
STARLINK-3557           
1 51802U 22017AL  25140.53201819  .00103492  00000+0  39924-2 0  9996
2 51802  53.2024 219.6027 0000800  47.2075 312.8991 15.25479272179749
STARLINK-3544           
1 51803U 22017AM  25140.56281431  .00002912  00000+0  20099-3 0  9997
2 51803  53.2161 225.0170 0001217  80.9445 279.1685 15.08841150179665
STARLINK-3601           
1 51804U 22017AN  25140.50944865  .00000268  00000+0  34926-4 0  9996
2 51804  53.2165 205.2576 0001228  88.9328 271.1805 15.08840834179899
STARLINK-3605           
1 51805U 22017AP  25140.44690062  .00000703  00000+0  62234-4 0  9994
2 51805  53.2168 205.6146 0001169  80.9046 279.2078 15.08837005179979
STARLINK-3606           
1 51807U 22017AR  25140.52692858  .00001582  00000+0  11748-3 0  9999
2 51807  53.2169 215.1786 0001177  84.9556 275.1571 15.08841030179850
STARLINK-3609           
1 51808U 22017AS  25140.51220502 -.00010947  00000+0 -66985-3 0  9992
2 51808  53.2168 215.2460 0001098 102.8674 257.2441 15.08887959179805
STARLINK-3607           
1 51809U 22017AT  25140.51958113  .00004599  00000+0  30686-3 0  9992
2 51809  53.2156 215.1735 0000996  98.5866 261.5239 15.08838546179808
